{
  "type": "FeatureCollection",
  "features": [
    {
      "type": "Feature",
      "properties": {
        "norad_id": 66637,
        "name": "STARLINK-35953",
        "group": "last-30-days",
        "lat": 18.18486416756421,
        "lon": 36.0950069607466,
        "alt_km": 319.8312209693904,
        "timestamp": "2025-12-03T22:42:31.477285+00:00",
        "meta_object_name": "STARLINK-35953",
        "meta_object_id": "2025-271W",
        "meta_epoch": "2025-12-02T16:00:03.000096",
        "meta_mean_motion": 15.87022927,
        "meta_eccentricity": 4.94e-05,
        "meta_inclination": 53.157,
        "meta_ra_of_asc_node": 236.8063,
        "meta_arg_of_pericenter": 104.6163,
        "meta_mean_anomaly": 307.4827,
        "meta_ephemeris_type": 0,
        "meta_classification_type": "U",
        "meta_norad_cat_id": 66637,
        "meta_element_set_no": 999,
        "meta_rev_at_epoch": 262,
        "meta_bstar": -0.0065583,
        "meta_mean_motion_dot": -0.01531191,
        "meta_mean_motion_ddot": 0,
        "tle_line1": "1 66637U 25271W   25336.66670139 -.01531191  00000+0 -65583-2 0  9993",
        "tle_line2": "2 66637  53.1570 236.8063 0000494 104.6163 307.4827 15.87022927  2621"
      },
      "geometry": {
        "type": "Point",
        "coordinates": [
          36.0950069607466,
          18.18486416756421
        ]
      }
    },
    {
      "type": "Feature",
      "properties": {
        "norad_id": 66638,
        "name": "STARLINK-35972",
        "group": "last-30-days",
        "lat": 16.480151582662188,
        "lon": 37.53365849413608,
        "alt_km": 320.185257156495,
        "timestamp": "2025-12-03T22:42:31.477295+00:00",
        "meta_object_name": "STARLINK-35972",
        "meta_object_id": "2025-271X",
        "meta_epoch": "2025-12-02T16:00:03.000096",
        "meta_mean_motion": 15.87058425,
        "meta_eccentricity": 5.4e-05,
        "meta_inclination": 53.1571,
        "meta_ra_of_asc_node": 236.802,
        "meta_arg_of_pericenter": 96.6013,
        "meta_mean_anomaly": 317.6246,
        "meta_ephemeris_type": 0,
        "meta_classification_type": "U",
        "meta_norad_cat_id": 66638,
        "meta_element_set_no": 999,
        "meta_rev_at_epoch": 262,
        "meta_bstar": -0.0066217,
        "meta_mean_motion_dot": -0.01546657,
        "meta_mean_motion_ddot": 0,
        "tle_line1": "1 66638U 25271X   25336.66670139 -.01546657  00000+0 -66217-2 0  9992",
        "tle_line2": "2 66638  53.1571 236.8020 0000540  96.6013 317.6246 15.87058425  2622"
      },
      "geometry": {
        "type": "Point",
        "coordinates": [
          37.53365849413608,
          16.480151582662188
        ]
      }
    },
    {
      "type": "Feature",
      "properties": {
        "norad_id": 66639,
        "name": "STARLINK-35908",
        "group": "last-30-days",
        "lat": 14.795945075093702,
        "lon": 38.921891184524036,
        "alt_km": 320.4681736457169,
        "timestamp": "2025-12-03T22:42:31.477304+00:00",
        "meta_object_name": "STARLINK-35908",
        "meta_object_id": "2025-271Y",
        "meta_epoch": "2025-12-02T16:00:03.000096",
        "meta_mean_motion": 15.87092267,
        "meta_eccentricity": 4.91e-05,
        "meta_inclination": 53.1568,
        "meta_ra_of_asc_node": 236.7975,
        "meta_arg_of_pericenter": 99.945,
        "meta_mean_anomaly": 316.3729,
        "meta_ephemeris_type": 0,
        "meta_classification_type": "U",
        "meta_norad_cat_id": 66639,
        "meta_element_set_no": 999,
        "meta_rev_at_epoch": 262,
        "meta_bstar": -0.0066811,
        "meta_mean_motion_dot": -0.01561125,
        "meta_mean_motion_ddot": 0,
        "tle_line1": "1 66639U 25271Y   25336.66670139 -.01561125  00000+0 -66811-2 0  9990",
        "tle_line2": "2 66639  53.1568 236.7975 0000491  99.9450 316.3729 15.87092267  2627"
      },
      "geometry": {
        "type": "Point",
        "coordinates": [
          38.921891184524036,
          14.795945075093702
        ]
      }
    },
    {
      "type": "Feature",
      "properties": {
        "norad_id": 66640,
        "name": "STARLINK-35921",
        "group": "last-30-days",
        "lat": 13.221071067245948,
        "lon": 40.19526988913901,
        "alt_km": 320.72318961106066,
        "timestamp": "2025-12-03T22:42:31.477313+00:00",
        "meta_object_name": "STARLINK-35921",
        "meta_object_id": "2025-271Z",
        "meta_epoch": "2025-12-02T16:00:03.000096",
        "meta_mean_motion": 15.87132015,
        "meta_eccentricity": 5.91e-05,
        "meta_inclination": 53.157,
        "meta_ra_of_asc_node": 236.7939,
        "meta_arg_of_pericenter": 95.1881,
        "meta_mean_anomaly": 323.03,
        "meta_ephemeris_type": 0,
        "meta_classification_type": "U",
        "meta_norad_cat_id": 66640,
        "meta_element_set_no": 999,
        "meta_rev_at_epoch": 262,
        "meta_bstar": -0.0067285,
        "meta_mean_motion_dot": -0.01573645,
        "meta_mean_motion_ddot": 0,
        "tle_line1": "1 66640U 25271Z   25336.66670139 -.01573645  00000+0 -67285-2 0  9998",
        "tle_line2": "2 66640  53.1570 236.7939 0000591  95.1881 323.0300 15.87132015  2625"
      },
      "geometry": {
        "type": "Point",
        "coordinates": [
          40.19526988913901,
          13.221071067245948
        ]
      }
    },
    {
      "type": "Feature",
      "properties": {
        "norad_id": 66641,
        "name": "STARLINK-35923",
        "group": "last-30-days",
        "lat": 4.057437807260619,
        "lon": 47.26825700242728,
        "alt_km": 323.3694123802388,
        "timestamp": "2025-12-03T22:42:31.477321+00:00",
        "meta_object_name": "STARLINK-35923",
        "meta_object_id": "2025-271AA",
        "meta_epoch": "2025-12-02T16:00:03.000096",
        "meta_mean_motion": 15.87121625,
        "meta_eccentricity": 7e-05,
        "meta_inclination": 53.1565,
        "meta_ra_of_asc_node": 236.7669,
        "meta_arg_of_pericenter": 106.15,
        "meta_mean_anomaly": 324.8044,
        "meta_ephemeris_type": 0,
        "meta_classification_type": "U",
        "meta_norad_cat_id": 66641,
        "meta_element_set_no": 999,
        "meta_rev_at_epoch": 262,
        "meta_bstar": -0.0075858,
        "meta_mean_motion_dot": -0.01745744,
        "meta_mean_motion_ddot": 0,
        "tle_line1": "1 66641U 25271AA  25336.66670139 -.01745744  00000+0 -75858-2 0  9995",
        "tle_line2": "2 66641  53.1565 236.7669 0000700 106.1500 324.8044 15.87121625  2622"
      },
      "geometry": {
        "type": "Point",
        "coordinates": [
          47.26825700242728,
          4.057437807260619
        ]
      }
    },
    {
      "type": "Feature",
      "properties": {
        "norad_id": 66642,
        "name": "STARLINK-35926",
        "group": "last-30-days",
        "lat": 5.836257160177333,
        "lon": 45.92660386224242,
        "alt_km": 323.18161383684037,
        "timestamp": "2025-12-03T22:42:31.477331+00:00",
        "meta_object_name": "STARLINK-35926",
        "meta_object_id": "2025-271AB",
        "meta_epoch": "2025-12-02T16:00:03.000096",
        "meta_mean_motion": 15.87106467,
        "meta_eccentricity": 6.11e-05,
        "meta_inclination": 53.1568,
        "meta_ra_of_asc_node": 236.7719,
        "meta_arg_of_pericenter": 100.9606,
        "meta_mean_anomaly": 327.7958,
        "meta_ephemeris_type": 0,
        "meta_classification_type": "U",
        "meta_norad_cat_id": 66642,
        "meta_element_set_no": 999,
        "meta_rev_at_epoch": 238,
        "meta_bstar": -0.0075605,
        "meta_mean_motion_dot": -0.01739522,
        "meta_mean_motion_ddot": 0,
        "tle_line1": "1 66642U 25271AB  25336.66670139 -.01739522  00000+0 -75605-2 0  9993",
        "tle_line2": "2 66642  53.1568 236.7719 0000611 100.9606 327.7958 15.87106467  2388"
      },
      "geometry": {
        "type": "Point",
        "coordinates": [
          45.92660386224242,
          5.836257160177333
        ]
      }
    },
    {
      "type": "Feature",
      "properties": {
        "norad_id": 66643,
        "name": "STARLINK-35918",
        "group": "last-30-days",
        "lat": 9.15551580217806,
        "lon": 43.39021614022025,
        "alt_km": 322.42466334617166,
        "timestamp": "2025-12-03T22:42:31.477339+00:00",
        "meta_object_name": "STARLINK-35918",
        "meta_object_id": "2025-271AC",
        "meta_epoch": "2025-12-02T16:00:03.000096",
        "meta_mean_motion": 15.87051116,
        "meta_eccentricity": 7.17e-05,
        "meta_inclination": 53.1571,
        "meta_ra_of_asc_node": 236.7807,
        "meta_arg_of_pericenter": 110.7411,
        "meta_mean_anomaly": 313.9012,
        "meta_ephemeris_type": 0,
        "meta_classification_type": "U",
        "meta_norad_cat_id": 66643,
        "meta_element_set_no": 999,
        "meta_rev_at_epoch": 262,
        "meta_bstar": -0.0074303,
        "meta_mean_motion_dot": -0.01709685,
        "meta_mean_motion_ddot": 0,
        "tle_line1": "1 66643U 25271AC  25336.66670139 -.01709685  00000+0 -74303-2 0  9995",
        "tle_line2": "2 66643  53.1571 236.7807 0000717 110.7411 313.9012 15.87051116  2626"
      },
      "geometry": {
        "type": "Point",
        "coordinates": [
          43.39021614022025,
          9.15551580217806
        ]
      }
    }
  ]
}